[{"OBJECT_NAME":"GAOFEN-9 05","OBJECT_ID":"2020-058A","EPOCH":"2026-03-10T00:01:50.876256","MEAN_MOTION":15.30293976,"ECCENTRICITY":0.0010522,"INCLINATION":97.2228,"RA_OF_ASC_NODE":111.963,"ARG_OF_PERICENTER":91.0204,"MEAN_ANOMALY":269.2242,"EPHEMERIS_TYPE":0,"CLASSIFICATION_TYPE":"U","NORAD_CAT_ID":46232,"ELEMENT_SET_NO":999,"REV_AT_EPOCH":30843,"BSTAR":0.00025120304,"MEAN_MOTION_DOT":7.299e-5,"MEAN_MOTION_DDOT":0},{"OBJECT_NAME":"STARLINK-31929","OBJECT_ID":"2024-097B","EPOCH":"2026-03-09T22:53:16.910880","MEAN_MOTION":15.27571914,"ECCENTRICITY":0.00012783,"INCLINATION":43.0019,"RA_OF_ASC_NODE":273.1735,"ARG_OF_PERICENTER":243.1631,"MEAN_ANOMALY":116.909,"EPHEMERIS_TYPE":0,"CLASSIFICATION_TYPE":"U","NORAD_CAT_ID":59836,"ELEMENT_SET_NO":999,"REV_AT_EPOCH":10195,"BSTAR":-9.713232e-6,"MEAN_MOTION_DOT":-5.29e-6,"MEAN_MOTION_DDOT":0}]
